OBJECT_NAME,OBJECT_ID,EPOCH,MEAN_MOTION,ECCENTRICITY,INCLINATION,RA_OF_ASC_NODE,ARG_OF_PERICENTER,MEAN_ANOMALY,EPHEMERIS_TYPE,CLASSIFICATION_TYPE,NORAD_CAT_ID,ELEMENT_SET_NO,REV_AT_EPOCH,BSTAR,MEAN_MOTION_DOT,MEAN_MOTION_DDOT
STARLINK-31853,2024-106M,2026-05-21T09:44:44.822976,15.27575999,.0000494,42.9979,281.8767,296.4437,63.6364,0,U,59933,999,11164,-.12523E-4,-.606E-5,0
STARLINK-31971,2024-106N,2026-05-22T16:16:55.976160,15.27580312,.0001636,43.0027,271.4766,267.3061,92.7603,0,U,59934,999,11175,-.46578E-5,-.39E-5,0
STARLINK-31962,2024-106Q,2026-05-22T17:39:20.477088,15.27561169,.0001173,43.0015,274.6522,277.0564,83.0154,0,U,59936,999,11184,-.59185E-4,-.1889E-4,0
STARLINK-31879,2024-106R,2026-05-22T16:19:58.609344,15.27576730,.0001028,43.0019,275.0988,273.9487,86.1248,0,U,59937,999,11188,.84612E-5,-.29E-6,0
STARLINK-31876,2024-106S,2026-05-22T16:56:46.695264,15.27572619,.0001237,43.0015,274.4341,265.2258,94.8452,0,U,59938,999,11185,.85564E-4,.2093E-4,0
STARLINK-31955,2024-106T,2026-05-22T18:01:19.354080,15.27576896,.0001972,42.9977,273.9024,176.8985,183.1879,0,U,59939,999,11189,.1618E-3,.4192E-4,0
STARLINK-31946,2024-106U,2026-05-22T16:14:25.388736,15.27577153,.0000894,43.0012,275.0691,274.5422,85.5327,0,U,59940,999,10246,.19021E-4,.261E-5,0
STARLINK-31948,2024-106V,2026-05-22T17:39:59.770080,15.27578360,.0000864,43.0042,271.0903,281.6966,78.3788,0,U,59941,999,11188,.47205E-4,.1037E-4,0
STARLINK-31900,2024-106W,2026-05-22T18:05:01.139424,15.27577684,.0001629,43.0028,273.9327,268.6889,91.3776,0,U,59942,999,11185,.3517E-4,.706E-5,0
STARLINK-31973,2024-106X,2026-05-22T17:28:12.903168,15.27633168,.0001075,42.9998,274.5990,287.0916,72.9818,0,U,59943,999,11184,-.38165E-3,-.10766E-3,0
STARLINK-31966,2024-106Y,2026-05-22T17:22:39.781920,15.27595017,.0001218,42.9998,274.5631,288.6247,71.4473,0,U,59944,999,11189,.10576E-4,.29E-6,0
STARLINK-11145 [DTC],2024-107A,2026-05-22T16:27:23.755104,15.69703186,.0001576,53.1560,246.8007,92.0011,268.1188,0,U,59945,999,11376,-.13592E-4,-.2235E-4,0
STARLINK-11113 [DTC],2024-107C,2026-05-22T16:34:18.406848,15.69704079,.0001183,53.1582,246.0855,100.7238,259.3913,0,U,59947,999,11377,-.17644E-5,-.802E-5,0
STARLINK-11123 [DTC],2024-107D,2026-05-22T07:03:08.750592,15.69723532,.0001178,53.1577,248.6174,88.6438,271.4715,0,U,59948,999,11376,.49388E-5,.1E-6,0
STARLINK-11138 [DTC],2024-107E,2026-05-22T17:16:40.363968,15.69719288,.0000998,53.1601,246.2920,11.6784,348.4257,0,U,59949,999,11383,.25007E-5,-.285E-5,0
STARLINK-11130 [DTC],2024-107F,2026-05-22T14:34:30.700128,15.69686797,.0001347,53.1590,247.0157,86.9689,273.1483,0,U,59950,999,11375,.49558E-4,.5413E-4,0
STARLINK-11124 [DTC],2024-107H,2026-05-22T15:52:03.848160,15.69702442,.000025,53.1591,246.6385,35.4552,324.6483,0,U,59952,999,11383,.20665E-4,.1916E-4,0
STARLINK-11133 [DTC],2024-107K,2026-05-22T17:02:33.479808,15.69709594,.0000854,53.1578,246.2256,59.0941,301.0161,0,U,59954,999,11377,.50275E-4,.5506E-4,0
STARLINK-11144 [DTC],2024-107L,2026-05-22T15:23:48.928128,15.69694947,.0000959,53.1602,246.5104,38.8501,321.2585,0,U,59955,999,11382,.21209E-4,.198E-4,0
STARLINK-11134 [DTC],2024-107M,2026-05-22T13:45:04.226976,15.69690536,.0001145,53.1571,246.7867,94.3830,265.7318,0,U,59956,999,11368,.13277E-4,.1019E-4,0
STARLINK-11142 [DTC],2024-107N,2026-05-22T13:38:00.155040,15.69696687,.0000736,53.1591,246.7541,71.9082,288.2016,0,U,59957,999,11376,.91187E-5,.516E-5,0
STARLINK-31995,2024-107P,2026-05-22T12:54:04.180032,15.30190756,.0001356,53.1601,82.4606,104.8669,255.2482,0,U,59958,999,10990,.58253E-4,.1366E-4,0
STARLINK-31989,2024-107Q,2026-05-22T12:44:56.829984,15.30209764,.0001245,53.1606,82.4243,92.4063,267.7080,0,U,59959,999,11110,.82462E-4,.2085E-4,0
STARLINK-31856,2024-107R,2026-05-22T12:49:33.887136,15.30160662,.0001907,53.1612,82.4409,84.5881,275.5338,0,U,59960,999,11110,-.22432E-3,-.6989E-4,0
STARLINK-31993,2024-107S,2026-05-22T13:03:12.076128,15.30176465,.000155,53.1613,82.4989,102.3390,257.7784,0,U,59961,999,11104,.11523E-3,.3052E-4,0
STARLINK-31980,2024-107T,2026-05-22T13:13:50.631744,15.30183978,.0001515,53.1606,82.5427,104.8296,255.2873,0,U,59962,999,11110,-.10459E-3,-.3454E-4,0
STARLINK-31991,2024-107U,2026-05-22T12:58:38.513856,15.30196906,.0001604,53.1628,82.4804,90.5657,269.5528,0,U,59963,999,11110,.62651E-4,.1496E-4,0
STARLINK-31979,2024-107V,2026-05-22T13:09:16.521696,15.30189622,.0001666,53.1615,82.5226,92.9633,267.1558,0,U,59964,999,11105,.24552E-4,.368E-5,0
PREFIRE-1,2024-108A,2026-05-21T22:15:20.178432,15.23365824,.0010477,97.5298,296.6475,339.4849,20.5965,0,U,59965,999,10859,.16705654E-3,.3903E-4,0
2024-110A,2024-110A,2026-05-22T17:32:17.308896,15.12935305,.0008136,97.5678,234.5975,353.7185,6.3943,0,U,60012,999,10806,.30493E-3,.5312E-4,0
