STARLINK-31853          
1 59933U 24106M   26141.40607434 -.00000606  00000+0 -12523-4 0  9994
2 59933  42.9979 281.8767 0000494 296.4437  63.6364 15.27575999111642
STARLINK-31971          
1 59934U 24106N   26142.67842565 -.00000390  00000+0 -46578-5 0  9999
2 59934  43.0027 271.4766 0001636 267.3061  92.7603 15.27580312111758
STARLINK-31962          
1 59936U 24106Q   26142.73565367 -.00001889  00000+0 -59185-4 0  9991
2 59936  43.0015 274.6522 0001173 277.0564  83.0154 15.27561169111847
STARLINK-31879          
1 59937U 24106R   26142.68053946 -.00000029  00000+0  84612-5 0  9999
2 59937  43.0019 275.0988 0001028 273.9487  86.1248 15.27576730111883
STARLINK-31876          
1 59938U 24106S   26142.70609601  .00002093  00000+0  85564-4 0  9996
2 59938  43.0015 274.4341 0001237 265.2258  94.8452 15.27572619111850
STARLINK-31955          
1 59939U 24106T   26142.75091845  .00004192  00000+0  16180-3 0  9996
2 59939  42.9977 273.9024 0001972 176.8985 183.1879 15.27576896111898
STARLINK-31946          
1 59940U 24106U   26142.67668274  .00000261  00000+0  19021-4 0  9996
2 59940  43.0012 275.0691 0000894 274.5422  85.5327 15.27577153102462
STARLINK-31948          
1 59941U 24106V   26142.73610845  .00001037  00000+0  47205-4 0  9992
2 59941  43.0042 271.0903 0000864 281.6966  78.3788 15.27578360111885
STARLINK-31900          
1 59942U 24106W   26142.75348541  .00000706  00000+0  35170-4 0  9996
2 59942  43.0028 273.9327 0001629 268.6889  91.3776 15.27577684111857
STARLINK-31973          
1 59943U 24106X   26142.72792712 -.00010766  00000+0 -38165-3 0  9992
2 59943  42.9998 274.5990 0001075 287.0916  72.9818 15.27633168111847
STARLINK-31966          
1 59944U 24106Y   26142.72407155  .00000029  00000+0  10576-4 0  9993
2 59944  42.9998 274.5631 0001218 288.6247  71.4473 15.27595017111899
STARLINK-11145 [DTC]    
1 59945U 24107A   26142.68569161 -.00002235  00000+0 -13592-4 0  9990
2 59945  53.1560 246.8007 0001576  92.0011 268.1188 15.69703186113761
STARLINK-11113 [DTC]    
1 59947U 24107C   26142.69049082 -.00000802  00000+0 -17644-5 0  9999
2 59947  53.1582 246.0855 0001183 100.7238 259.3913 15.69704079113773
STARLINK-11123 [DTC]    
1 59948U 24107D   26142.29385128  .00000010  00000+0  49388-5 0  9999
2 59948  53.1577 248.6174 0001178  88.6438 271.4715 15.69723532113769
STARLINK-11138 [DTC]    
1 59949U 24107E   26142.71991162 -.00000285  00000+0  25007-5 0  9995
2 59949  53.1601 246.2920 0000998  11.6784 348.4257 15.69719288113837
STARLINK-11130 [DTC]    
1 59950U 24107F   26142.60729977  .00005413  00000+0  49558-4 0  9991
2 59950  53.1590 247.0157 0001347  86.9689 273.1483 15.69686797113759
STARLINK-11124 [DTC]    
1 59952U 24107H   26142.66115565  .00001916  00000+0  20665-4 0  9993
2 59952  53.1591 246.6385 0000250  35.4552 324.6483 15.69702442113837
STARLINK-11133 [DTC]    
1 59954U 24107K   26142.71010972  .00005506  00000+0  50275-4 0  9996
2 59954  53.1578 246.2256 0000854  59.0941 301.0161 15.69709594113771
STARLINK-11144 [DTC]    
1 59955U 24107L   26142.64153852  .00001980  00000+0  21209-4 0  9991
2 59955  53.1602 246.5104 0000959  38.8501 321.2585 15.69694947113823
STARLINK-11134 [DTC]    
1 59956U 24107M   26142.57296559  .00001019  00000+0  13277-4 0  9995
2 59956  53.1571 246.7867 0001145  94.3830 265.7318 15.69690536113687
STARLINK-11142 [DTC]    
1 59957U 24107N   26142.56805735  .00000516  00000+0  91187-5 0  9995
2 59957  53.1591 246.7541 0000736  71.9082 288.2016 15.69696687113761
STARLINK-31995          
1 59958U 24107P   26142.53754838  .00001366  00000+0  58253-4 0  9990
2 59958  53.1601  82.4606 0001356 104.8669 255.2482 15.30190756109903
STARLINK-31989          
1 59959U 24107Q   26142.53121331  .00002085  00000+0  82462-4 0  9995
2 59959  53.1606  82.4243 0001245  92.4063 267.7080 15.30209764111100
STARLINK-31856          
1 59960U 24107R   26142.53441999 -.00006989  00000+0 -22432-3 0  9991
2 59960  53.1612  82.4409 0001907  84.5881 275.5338 15.30160662111104
STARLINK-31993          
1 59961U 24107S   26142.54388977  .00003052  00000+0  11523-3 0  9994
2 59961  53.1613  82.4989 0001550 102.3390 257.7784 15.30176465111045
STARLINK-31980          
1 59962U 24107T   26142.55128046 -.00003454  00000+0 -10459-3 0  9990
2 59962  53.1606  82.5427 0001515 104.8296 255.2873 15.30183978111105
STARLINK-31991          
1 59963U 24107U   26142.54072354  .00001496  00000+0  62651-4 0  9994
2 59963  53.1628  82.4804 0001604  90.5657 269.5528 15.30196906111109
STARLINK-31979          
1 59964U 24107V   26142.54810789  .00000368  00000+0  24552-4 0  9992
2 59964  53.1615  82.5226 0001666  92.9633 267.1558 15.30189622111051
PREFIRE-1               
1 59965U 24108A   26141.92731688  .00003903  00000+0  16706-3 0  9994
2 59965  97.5298 296.6475 0010477 339.4849  20.5965 15.23365824108593
2024-110A               
1 60012U 24110A   26142.73075589  .00005312  00000+0  30493-3 0  9998
2 60012  97.5678 234.5975 0008136 353.7185   6.3943 15.12935305108062
